{
  "53846": {
    "noradId": "53846",
    "tle": [
      "1 53846C 22114AE  26047.17895833 -.00009401  00000+0 -58949-3 0   476",
      "2 53846  53.2169  30.5027 0001490  77.8604  37.9867 15.08849687    14"
    ]
  },
  "53847": {
    "noradId": "53847",
    "tle": [
      "1 53847C 22114AF  26047.17618056  .00000485  00000+0  30432-4 0   476",
      "2 53847  53.2172  30.6330 0001355  86.9756 313.7399 15.08828224    15"
    ]
  },
  "53848": {
    "noradId": "53848",
    "tle": [
      "1 53848C 22114AG  26047.17895833 -.00010050  00000+0 -63019-3 0   474",
      "2 53848  53.2163  30.4224 0001500  87.8784  68.0276 15.08848567    15"
    ]
  },
  "53849": {
    "noradId": "53849",
    "tle": [
      "1 53849C 22114AH  26047.16993056 -.00011088  00000+0 -69539-3 0   475",
      "2 53849  53.2171  30.5832 0001479  88.5372 318.2332 15.08846542    11"
    ]
  },
  "53850": {
    "noradId": "53850",
    "tle": [
      "1 53850C 22114AJ  26047.16437500 -.00007266  00000+0 -45567-3 0   472",
      "2 53850  53.2164  30.3680 0001408  88.3373  48.3943 15.08842145    19"
    ]
  },
  "53851": {
    "noradId": "53851",
    "tle": [
      "1 53851C 22114AK  26047.17618056 -.00015689  00000+0 -98381-3 0   471",
      "2 53851  53.2168  30.4763 0001437  83.9397  36.8365 15.08853346    11"
    ]
  },
  "53852": {
    "noradId": "53852",
    "tle": [
      "1 53852C 22114AL  26047.17340278 -.00019906  00000+0 -12485-2 0   476",
      "2 53852  53.2171  25.6453 0001638  88.0572 305.0562 15.08848817    19"
    ]
  },
  "53853": {
    "noradId": "53853",
    "tle": [
      "1 53853C 22114AM  26047.17340278 -.00000353  00000+0 -22157-4 0   472",
      "2 53853  53.2162  30.4072 0001550  87.9960  57.7533 15.08831167    12"
    ]
  },
  "53854": {
    "noradId": "53854",
    "tle": [
      "1 53854C 22114AN  26047.17895833  .00026760  00000+0  16791-2 0   478",
      "2 53854  53.2171  20.9198 0001645  95.1582 175.3717 15.08789896    14"
    ]
  },
  "53855": {
    "noradId": "53855",
    "tle": [
      "1 53855C 22114AP  26047.17062500 -.00012719  00000+0 -79759-3 0   471",
      "2 53855  53.2164  30.4685 0001507  85.8130  19.5913 15.08850574    15"
    ]
  },
  "53856": {
    "noradId": "53856",
    "tle": [
      "1 53856C 22114AQ  26047.17826389 -.00018102  00000+0 -11351-2 0   470",
      "2 53856  53.2164  20.7735 0001455  91.2106 255.6852 15.08857518    10"
    ]
  },
  "53857": {
    "noradId": "53857",
    "tle": [
      "1 53857C 22114AR  26047.16645833 -.00013546  00000+0 -84948-3 0   473",
      "2 53857  53.2166  30.3192 0001490  88.6092  79.4709 15.08849742    13"
    ]
  },
  "53858": {
    "noradId": "53858",
    "tle": [
      "1 53858C 22114AS  26047.17687500 -.00014250  00000+0 -89373-3 0   472",
      "2 53858  53.2167  20.8896 0001522  91.6298 187.6780 15.08845381    14"
    ]
  },
  "53859": {
    "noradId": "53859",
    "tle": [
      "1 53859C 22114AT  26047.17479167 -.00012591  00000+0 -78963-3 0   470",
      "2 53859  53.2169  25.3620 0001471  89.4576  91.3598 15.08848130    12"
    ]
  },
  "53860": {
    "noradId": "53860",
    "tle": [
      "1 53860C 22114AU  26047.17548611 -.00005634  00000+0 -35339-3 0   473",
      "2 53860  53.2164  20.8160 0001480  84.0660 227.7246 15.08836429    16"
    ]
  },
  "53861": {
    "noradId": "53861",
    "tle": [
      "1 53861C 22114AV  26047.17826389 -.00019460  00000+0 -12203-2 0   471",
      "2 53861  53.2168  20.8489 0001406  88.9147 217.9358 15.08858346    13"
    ]
  },
  "53863": {
    "noradId": "53863",
    "tle": [
      "1 53863C 22114AX  26047.17479167 -.00018363  00000+0 -11515-2 0   477",
      "2 53863  53.2165  20.7421 0001391  88.7414 259.3166 15.08855144    15"
    ]
  },
  "53864": {
    "noradId": "53864",
    "tle": [
      "1 53864C 22114AY  26047.17479167 -.00005857  00000+0 -36720-3 0   478",
      "2 53864  53.2171  20.2705 0001667  88.0044 140.3360 15.08849658    19"
    ]
  },
  "53866": {
    "noradId": "53866",
    "tle": [
      "1 53866C 22114BA  26047.17479167 -.00012508  00000+0 -78443-3 0   479",
      "2 53866  53.2175   0.9137 0001440  90.9344 187.0274 15.08846786    14"
    ]
  },
  "53867": {
    "noradId": "53867",
    "tle": [
      "1 53867C 22114BB  26047.17270833 -.00009909  00000+0 -62136-3 0   472",
      "2 53867  53.2178  10.7785 0001485  87.1354 244.5877 15.08849485    11"
    ]
  },
  "53868": {
    "noradId": "53868",
    "tle": [
      "1 53868C 22114BC  26047.17965278 -.00025036  00000+0 -15707-2 0   477",
      "2 53868  53.2176   0.5962 0001433  84.2323  20.4319 15.08847253    14"
    ]
  },
  "53869": {
    "noradId": "53869",
    "tle": [
      "1 53869C 22114BD  26047.16854167 -.00012673  00000+0 -79478-3 0   470",
      "2 53869  53.2168  10.4024 0001420  86.3458  62.9930 15.08847603    12"
    ]
  },
  "53870": {
    "noradId": "53870",
    "tle": [
      "1 53870C 22114BE  26047.17756944  .00014055  00000+0  88152-3 0   470",
      "2 53870  53.2177   0.6286 0001217  87.1237 346.1171 15.08818737    13"
    ]
  },
  "53871": {
    "noradId": "53871",
    "tle": [
      "1 53871C 22114BF  26047.17756944 -.00002543  00000+0 -15953-3 0   471",
      "2 53871  53.2179   0.3119 0001470  78.9452 154.5121 15.08831103    14"
    ]
  },
  "53886": {
    "noradId": "53886",
    "tle": [
      "1 53886C 22119A   26047.17965278 -.00015143  00000+0 -94965-3 0   474",
      "2 53886  53.2155  60.9141 0001411  87.2523 287.1127 15.08850008    12"
    ]
  },
  "53887": {
    "noradId": "53887",
    "tle": [
      "1 53887C 22119B   26047.17062500 -.00017714  00000+0 -11108-2 0   474",
      "2 53887  53.2151  60.8370 0001547  81.1265 304.2457 15.08855715    15"
    ]
  },
  "53888": {
    "noradId": "53888",
    "tle": [
      "1 53888C 22119C   26047.17895833 -.00013885  00000+0 -87067-3 0   471",
      "2 53888  53.2154  60.8780 0001447  83.8417 306.7487 15.08853919    15"
    ]
  },
  "53889": {
    "noradId": "53889",
    "tle": [
      "1 53889C 22119D   26047.17895833 -.00007278  00000+0 -45642-3 0   474",
      "2 53889  53.2152  60.8382 0001358  84.4502 326.1764 15.08844232    17"
    ]
  },
  "53890": {
    "noradId": "53890",
    "tle": [
      "1 53890C 22119E   26047.17340278 -.00011493  00000+0 -72078-3 0   471",
      "2 53890  53.2165  25.4933 0001414  89.9237 143.2672 15.08846514    11"
    ]
  },
  "53891": {
    "noradId": "53891",
    "tle": [
      "1 53891C 22119F   26047.17756944 -.00046074  00000+0 -28895-2 0   473",
      "2 53891  53.2152  60.7665 0001391  88.3118 354.8693 15.08880123    14"
    ]
  },
  "53892": {
    "noradId": "53892",
    "tle": [
      "1 53892C 22119G   26047.17826389 -.00012353  00000+0 -77463-3 0   474",
      "2 53892  53.2158  60.5662 0001396  88.2229  98.8089 15.08850015    14"
    ]
  },
  "53893": {
    "noradId": "53893",
    "tle": [
      "1 53893C 22119H   26047.17826389 -.00017080  00000+0 -10711-2 0   479",
      "2 53893  53.2152  60.6937 0001405  88.6079  33.1629 15.08854187    19"
    ]
  },
  "53894": {
    "noradId": "53894",
    "tle": [
      "1 53894C 22119J   26047.17618056 -.00010634  00000+0 -66683-3 0   478",
      "2 53894  53.2152  60.7344 0001341  86.0206   9.5886 15.08849696    17"
    ]
  },
  "53895": {
    "noradId": "53895",
    "tle": [
      "1 53895C 22119K   26047.17965278 -.00006949  00000+0 -43583-3 0   478",
      "2 53895  53.2157  60.5997 0001382  87.2826  87.2899 15.08837775    13"
    ]
  },
  "53896": {
    "noradId": "53896",
    "tle": [
      "1 53896C 22119L   26047.17687500 -.00010244  00000+0 -64240-3 0   474",
      "2 53896  53.2159  60.5340 0001291  91.3135 108.2064 15.08847840    18"
    ]
  },
  "53897": {
    "noradId": "53897",
    "tle": [
      "1 53897C 22119M   26047.17270833 -.00010999  00000+0 -68972-3 0   475",
      "2 53897  53.2151  60.7103 0001421  85.3380  11.4185 15.08849658    18"
    ]
  },
  "53898": {
    "noradId": "53898",
    "tle": [
      "1 53898C 22119N   26047.17479167 -.00003238  00000+0 -20306-3 0   474",
      "2 53898  53.2161  60.4241 0001380  91.0712 157.1971 15.08839187    14"
    ]
  },
  "53899": {
    "noradId": "53899",
    "tle": [
      "1 53899C 22119P   26047.17201389 -.00002808  00000+0 -17609-3 0   478",
      "2 53899  53.2159  60.4759 0001323  91.4155 121.7284 15.08839031    10"
    ]
  },
  "53900": {
    "noradId": "53900",
    "tle": [
      "1 53900C 22119Q   26047.17687500 -.00019081  00000+0 -11963-2 0   471",
      "2 53900  53.2160  60.3348 0001428  86.0967 213.5085 15.08864887    11"
    ]
  },
  "53901": {
    "noradId": "53901",
    "tle": [
      "1 53901C 22119R   26047.17965278  .00006700  00000+0  33476-4 0   470",
      "2 53901  53.2061 350.9685 0001064  89.4589  62.6751 15.81123322    13"
    ]
  },
  "53902": {
    "noradId": "53902",
    "tle": [
      "1 53902C 22119S   26047.17270833 -.00013407  00000+0 -84082-3 0   479",
      "2 53902  53.2174  10.4729 0001354  91.0579 180.8798 15.08847214    12"
    ]
  },
  "53903": {
    "noradId": "53903",
    "tle": [
      "1 53903C 22119T   26047.16298611 -.00007298  00000+0 -45760-3 0   474",
      "2 53903  53.2164  60.5638 0001251  89.5621  49.2826 15.08849984    19"
    ]
  },
  "53904": {
    "noradId": "53904",
    "tle": [
      "1 53904C 22119U   26047.17965278 -.00014084  00000+0 -88316-3 0   471",
      "2 53904  53.2159  60.2836 0001403  87.9149 246.8402 15.08853385    12"
    ]
  },
  "53905": {
    "noradId": "53905",
    "tle": [
      "1 53905C 22119V   26047.17548611 -.00022705  00000+0 -14240-2 0   473",
      "2 53905  53.2162  50.9211 0001295  89.5093 277.2260 15.08855286    17"
    ]
  },
  "53906": {
    "noradId": "53906",
    "tle": [
      "1 53906C 22119W   26047.17479167 -.00009109  00000+0 -57121-3 0   472",
      "2 53906  53.2155  50.4223 0001426  88.3805 174.8904 15.08848141    11"
    ]
  }
}